{
  "type": "FeatureCollection",
  "features": [
    {
      "type": "Feature",
      "properties": {
        "norad_id": 66732,
        "name": "FLOCK 4H-29",
        "group": "last-30-days",
        "lat": -6.01296358495035,
        "lon": -108.92341085361885,
        "alt_km": 517.4329074840753,
        "timestamp": "2025-12-26T08:37:53.290872+00:00",
        "meta_object_name": "FLOCK 4H-29",
        "meta_object_id": "2025-276BU",
        "meta_epoch": "2025-12-26T03:03:58.062240",
        "meta_mean_motion": 15.17326528,
        "meta_eccentricity": 0.000199,
        "meta_inclination": 97.4368,
        "meta_ra_of_asc_node": 71.6373,
        "meta_arg_of_pericenter": 263.8004,
        "meta_mean_anomaly": 96.3003,
        "meta_ephemeris_type": 0,
        "meta_classification_type": "U",
        "meta_norad_cat_id": 66732,
        "meta_element_set_no": 999,
        "meta_rev_at_epoch": 415,
        "meta_bstar": 0.00065654,
        "meta_mean_motion_dot": 0.00013041,
        "meta_mean_motion_ddot": 0,
        "tle_line1": "1 66732U 25276BU  25360.12775535  .00013041  00000+0  65654-3 0  9994",
        "tle_line2": "2 66732  97.4368  71.6373 0001990 263.8004  96.3003 15.17326528  4153"
      },
      "geometry": {
        "type": "Point",
        "coordinates": [
          -108.92341085361885,
          -6.01296358495035
        ]
      }
    },
    {
      "type": "Feature",
      "properties": {
        "norad_id": 66733,
        "name": "FLOCK 4H-30",
        "group": "last-30-days",
        "lat": 0.5187203617998872,
        "lon": -108.04466564456617,
        "alt_km": 516.2098558700745,
        "timestamp": "2025-12-26T08:37:53.290884+00:00",
        "meta_object_name": "FLOCK 4H-30",
        "meta_object_id": "2025-276BV",
        "meta_epoch": "2025-12-26T01:30:43.503264",
        "meta_mean_motion": 15.17290542,
        "meta_eccentricity": 0.0003154,
        "meta_inclination": 97.443,
        "meta_ra_of_asc_node": 71.5961,
        "meta_arg_of_pericenter": 248.0816,
        "meta_mean_anomaly": 112.0082,
        "meta_ephemeris_type": 0,
        "meta_classification_type": "U",
        "meta_norad_cat_id": 66733,
        "meta_element_set_no": 999,
        "meta_rev_at_epoch": 414,
        "meta_bstar": 0.00043041,
        "meta_mean_motion_dot": 8.513e-05,
        "meta_mean_motion_ddot": 0,
        "tle_line1": "1 66733U 25276BV  25360.06300351  .00008513  00000+0  43041-3 0  9992",
        "tle_line2": "2 66733  97.4430  71.5961 0003154 248.0816 112.0082 15.17290542  4144"
      },
      "geometry": {
        "type": "Point",
        "coordinates": [
          -108.04466564456617,
          0.5187203617998872
        ]
      }
    },
    {
      "type": "Feature",
      "properties": {
        "norad_id": 66734,
        "name": "FLOCK 4H-31",
        "group": "last-30-days",
        "lat": 0.40620563169071777,
        "lon": -108.08509543486062,
        "alt_km": 516.7670641157856,
        "timestamp": "2025-12-26T08:37:53.290894+00:00",
        "meta_object_name": "FLOCK 4H-31",
        "meta_object_id": "2025-276BW",
        "meta_epoch": "2025-12-26T03:05:39.242688",
        "meta_mean_motion": 15.17242621,
        "meta_eccentricity": 0.000245,
        "meta_inclination": 97.4366,
        "meta_ra_of_asc_node": 71.6354,
        "meta_arg_of_pericenter": 255.3394,
        "meta_mean_anomaly": 104.7568,
        "meta_ephemeris_type": 0,
        "meta_classification_type": "U",
        "meta_norad_cat_id": 66734,
        "meta_element_set_no": 999,
        "meta_rev_at_epoch": 415,
        "meta_bstar": 0.00030386,
        "meta_mean_motion_dot": 5.98e-05,
        "meta_mean_motion_ddot": 0,
        "tle_line1": "1 66734U 25276BW  25360.12892642  .00005980  00000+0  30386-3 0  9992",
        "tle_line2": "2 66734  97.4366  71.6354 0002450 255.3394 104.7568 15.17242621  4153"
      },
      "geometry": {
        "type": "Point",
        "coordinates": [
          -108.08509543486062,
          0.40620563169071777
        ]
      }
    },
    {
      "type": "Feature",
      "properties": {
        "norad_id": 66735,
        "name": "FLOCK 4H-32",
        "group": "last-30-days",
        "lat": 2.4252471544937926,
        "lon": -107.79964998157622,
        "alt_km": 515.816435836773,
        "timestamp": "2025-12-26T08:37:53.290907+00:00",
        "meta_object_name": "FLOCK 4H-32",
        "meta_object_id": "2025-276BX",
        "meta_epoch": "2025-12-26T01:31:13.428768",
        "meta_mean_motion": 15.1726705,
        "meta_eccentricity": 0.0003541,
        "meta_inclination": 97.4422,
        "meta_ra_of_asc_node": 71.5921,
        "meta_arg_of_pericenter": 243.2948,
        "meta_mean_anomaly": 116.7923,
        "meta_ephemeris_type": 0,
        "meta_classification_type": "U",
        "meta_norad_cat_id": 66735,
        "meta_element_set_no": 999,
        "meta_rev_at_epoch": 414,
        "meta_bstar": 0.00035347,
        "meta_mean_motion_dot": 6.974e-05,
        "meta_mean_motion_ddot": 0,
        "tle_line1": "1 66735U 25276BX  25360.06334987  .00006974  00000+0  35347-3 0  9995",
        "tle_line2": "2 66735  97.4422  71.5921 0003541 243.2948 116.7923 15.17267050  4149"
      },
      "geometry": {
        "type": "Point",
        "coordinates": [
          -107.79964998157622,
          2.4252471544937926
        ]
      }
    },
    {
      "type": "Feature",
      "properties": {
        "norad_id": 66736,
        "name": "FLOCK 4H-33",
        "group": "last-30-days",
        "lat": -76.20553430374412,
        "lon": 104.09348611026765,
        "alt_km": 519.5105674451543,
        "timestamp": "2025-12-26T08:37:53.290917+00:00",
        "meta_object_name": "FLOCK 4H-33",
        "meta_object_id": "2025-276BY",
        "meta_epoch": "2025-12-26T04:13:52.650912",
        "meta_mean_motion": 15.18340488,
        "meta_eccentricity": 0.0002887,
        "meta_inclination": 97.4419,
        "meta_ra_of_asc_node": 71.7463,
        "meta_arg_of_pericenter": 150.7218,
        "meta_mean_anomaly": 209.4179,
        "meta_ephemeris_type": 0,
        "meta_classification_type": "U",
        "meta_norad_cat_id": 66736,
        "meta_element_set_no": 999,
        "meta_rev_at_epoch": 416,
        "meta_bstar": 0.0004823,
        "meta_mean_motion_dot": 9.842e-05,
        "meta_mean_motion_ddot": 0,
        "tle_line1": "1 66736U 25276BY  25360.17630383  .00009842  00000+0  48230-3 0  9999",
        "tle_line2": "2 66736  97.4419  71.7463 0002887 150.7218 209.4179 15.18340488  4166"
      },
      "geometry": {
        "type": "Point",
        "coordinates": [
          104.09348611026765,
          -76.20553430374412
        ]
      }
    },
    {
      "type": "Feature",
      "properties": {
        "norad_id": 66737,
        "name": "FLOCK 4H-34",
        "group": "last-30-days",
        "lat": -82.52056643739681,
        "lon": 156.67870815309345,
        "alt_km": 519.3894733268698,
        "timestamp": "2025-12-26T08:37:53.290926+00:00",
        "meta_object_name": "FLOCK 4H-34",
        "meta_object_id": "2025-276BZ",
        "meta_epoch": "2025-12-26T04:16:44.887584",
        "meta_mean_motion": 15.18194019,
        "meta_eccentricity": 0.0002521,
        "meta_inclination": 97.4433,
        "meta_ra_of_asc_node": 71.7489,
        "meta_arg_of_pericenter": 156.4025,
        "meta_mean_anomaly": 203.7325,
        "meta_ephemeris_type": 0,
        "meta_classification_type": "U",
        "meta_norad_cat_id": 66737,
        "meta_element_set_no": 999,
        "meta_rev_at_epoch": 341,
        "meta_bstar": 0.00049555,
        "meta_mean_motion_dot": 0.00010072,
        "meta_mean_motion_ddot": 0,
        "tle_line1": "1 66737U 25276BZ  25360.17829731  .00010072  00000+0  49555-3 0  9995",
        "tle_line2": "2 66737  97.4433  71.7489 0002521 156.4025 203.7325 15.18194019  3419"
      },
      "geometry": {
        "type": "Point",
        "coordinates": [
          156.67870815309345,
          -82.52056643739681
        ]
      }
    },
    {
      "type": "Feature",
      "properties": {
        "norad_id": 66738,
        "name": "FLOCK 4H-35",
        "group": "last-30-days",
        "lat": -76.93592996152124,
        "lon": 106.1885309933242,
        "alt_km": 519.7549216757598,
        "timestamp": "2025-12-26T08:37:53.290941+00:00",
        "meta_object_name": "FLOCK 4H-35",
        "meta_object_id": "2025-276CA",
        "meta_epoch": "2025-12-26T04:14:05.991936",
        "meta_mean_motion": 15.18287496,
        "meta_eccentricity": 0.0002661,
        "meta_inclination": 97.4395,
        "meta_ra_of_asc_node": 71.7367,
        "meta_arg_of_pericenter": 141.6622,
        "meta_mean_anomaly": 218.4802,
        "meta_ephemeris_type": 0,
        "meta_classification_type": "U",
        "meta_norad_cat_id": 66738,
        "meta_element_set_no": 999,
        "meta_rev_at_epoch": 345,
        "meta_bstar": 0.00045691,
        "meta_mean_motion_dot": 9.305e-05,
        "meta_mean_motion_ddot": 0,
        "tle_line1": "1 66738U 25276CA  25360.17645824  .00009305  00000+0  45691-3 0  9999",
        "tle_line2": "2 66738  97.4395  71.7367 0002661 141.6622 218.4802 15.18287496  3455"
      },
      "geometry": {
        "type": "Point",
        "coordinates": [
          106.1885309933242,
          -76.93592996152124
        ]
      }
    }
  ]
}